[{"OBJECT_NAME":"STARLINK-30828","OBJECT_ID":"2023-211E","EPOCH":"2026-03-09T02:22:30.516384","MEAN_MOTION":15.27575909,"ECCENTRICITY":6.617e-5,"INCLINATION":43.0035,"RA_OF_ASC_NODE":88.6664,"ARG_OF_PERICENTER":262.8442,"MEAN_ANOMALY":97.2335,"EPHEMERIS_TYPE":0,"CLASSIFICATION_TYPE":"U","NORAD_CAT_ID":58671,"ELEMENT_SET_NO":999,"REV_AT_EPOCH":12237,"BSTAR":-1.1230175e-5,"MEAN_MOTION_DOT":-5.71e-6,"MEAN_MOTION_DDOT":0},{"OBJECT_NAME":"CZ-4C R\/B","OBJECT_ID":"2015-069B","EPOCH":"2026-03-09T18:13:41.887776","MEAN_MOTION":15.30824061,"ECCENTRICITY":0.00587215,"INCLINATION":97.486,"RA_OF_ASC_NODE":137.7913,"ARG_OF_PERICENTER":156.3643,"MEAN_ANOMALY":204.0316,"EPHEMERIS_TYPE":0,"CLASSIFICATION_TYPE":"U","NORAD_CAT_ID":41039,"ELEMENT_SET_NO":999,"REV_AT_EPOCH":56689,"BSTAR":0.0003480254,"MEAN_MOTION_DOT":0.00010856,"MEAN_MOTION_DDOT":0}]
